{"type": "FeatureCollection", "features": [ {"type": "Feature", "properties": {"norad_id": 42987, "name": "SKYSAT-C11", "group": "resource", "lat": -31.41029820641968, "lon": -46.50083687194184, "alt_km": 428.98965847416275, "timestamp": "2025-12-26T05:31:12.157435+00:00", "meta": {"OBJECT_NAME": "SKYSAT-C11", "OBJECT_ID": "2017-068A", "EPOCH": "2025-12-25T22:24:11.990304", "MEAN_MOTION": 15.48016298, "ECCENTRICITY": 0.00011551, "INCLINATION": 97.4151, "RA_OF_ASC_NODE": 137.7566, "ARG_OF_PERICENTER": 96.2263, "MEAN_ANOMALY": 263.9118, "EPHEMERIS_TYPE": 0, "CLASSIFICATION_TYPE": "U", "NORAD_CAT_ID": 42987, "ELEMENT_SET_NO": 999, "REV_AT_EPOCH": 45635, "BSTAR": 0.00044194766, "MEAN_MOTION_DOT": 0.00023051, "MEAN_MOTION_DDOT": 0}, "tle": {"line1": "1 42987U 17068A   25359.93347211  .00023051  00000+0  44195-3 0  9992", "line2": "2 42987  97.4151 137.7566 0001155  96.2263 263.9118 15.48016298456351"}}, "geometry": {"type": "Point", "coordinates": [-46.50083687194184, -31.41029820641968]}}, {"type": "Feature", "properties": {"norad_id": 42988, "name": "SKYSAT-C10", "group": "resource", "lat": -75.21922535079864, "lon": -78.51123887867023, "alt_km": 479.8024702539833, "timestamp": "2025-12-26T05:31:12.157445+00:00", "meta": {"OBJECT_NAME": "SKYSAT-C10", "OBJECT_ID": "2017-068B", "EPOCH": "2025-12-24T19:29:00.783168", "MEAN_MOTION": 15.32071049, "ECCENTRICITY": 0.00043105, "INCLINATION": 97.4272, "RA_OF_ASC_NODE": 129.6977, "ARG_OF_PERICENTER": 75.127, "MEAN_ANOMALY": 285.0448, "EPHEMERIS_TYPE": 0, "CLASSIFICATION_TYPE": "U", "NORAD_CAT_ID": 42988, "ELEMENT_SET_NO": 999, "REV_AT_EPOCH": 45564, "BSTAR": 0.00040464637, "MEAN_MOTION_DOT": 0.00012461, "MEAN_MOTION_DDOT": 0}, "tle": {"line1": "1 42988U 17068B   25358.81181462  .00012461  00000+0  40465-3 0  9992", "line2": "2 42988  97.4272 129.6977 0004310  75.1270 285.0448 15.32071049455642"}}, "geometry": {"type": "Point", "coordinates": [-78.51123887867023, -75.21922535079864]}}, {"type": "Feature", "properties": {"norad_id": 42989, "name": "SKYSAT-C9", "group": "resource", "lat": -57.97465252163644, "lon": 142.61833964420705, "alt_km": 465.4988821708539, "timestamp": "2025-12-26T05:31:12.157455+00:00", "meta": {"OBJECT_NAME": "SKYSAT-C9", "OBJECT_ID": "2017-068C", "EPOCH": "2025-12-25T21:57:34.809408", "MEAN_MOTION": 15.36381631, "ECCENTRICITY": 0.00102125, "INCLINATION": 97.4194, "RA_OF_ASC_NODE": 130.2756, "ARG_OF_PERICENTER": 45.4149, "MEAN_ANOMALY": 314.7927, "EPHEMERIS_TYPE": 0, "CLASSIFICATION_TYPE": "U", "NORAD_CAT_ID": 42989, "ELEMENT_SET_NO": 999, "REV_AT_EPOCH": 45610, "BSTAR": 0.00039249687, "MEAN_MOTION_DOT": 0.00013877, "MEAN_MOTION_DDOT": 0}, "tle": {"line1": "1 42989U 17068C   25359.91498622  .00013877  00000+0  39250-3 0  9996", "line2": "2 42989  97.4194 130.2756 0010212  45.4149 314.7927 15.36381631456101"}}, "geometry": {"type": "Point", "coordinates": [142.61833964420705, -57.97465252163644]}}, {"type": "Feature", "properties": {"norad_id": 42990, "name": "SKYSAT-C8", "group": "resource", "lat": 59.65876226192106, "lon": -36.82787276575404, "alt_km": 460.99985049049155, "timestamp": "2025-12-26T05:31:12.157465+00:00", "meta": {"OBJECT_NAME": "SKYSAT-C8", "OBJECT_ID": "2017-068D", "EPOCH": "2025-12-25T21:10:08.556672", "MEAN_MOTION": 15.33208945, "ECCENTRICITY": 9.445e-05, "INCLINATION": 97.4287, "RA_OF_ASC_NODE": 129.942, "ARG_OF_PERICENTER": 263.9401, "MEAN_ANOMALY": 96.1733, "EPHEMERIS_TYPE": 0, "CLASSIFICATION_TYPE": "U", "NORAD_CAT_ID": 42990, "ELEMENT_SET_NO": 999, "REV_AT_EPOCH": 45572, "BSTAR": 0.00035523615, "MEAN_MOTION_DOT": 0.00011324, "MEAN_MOTION_DDOT": 0}, "tle": {"line1": "1 42990U 17068D   25359.88204348  .00011324  00000+0  35524-3 0  9999", "line2": "2 42990  97.4287 129.9420 0000944 263.9401  96.1733 15.33208945455724"}}, "geometry": {"type": "Point", "coordinates": [-36.82787276575404, 59.65876226192106]}}, {"type": "Feature", "properties": {"norad_id": 42991, "name": "SKYSAT-C7", "group": "resource", "lat": -53.70611566491417, "lon": 141.55686211638246, "alt_km": 473.3270551571122, "timestamp": "2025-12-26T05:31:12.157475+00:00", "meta": {"OBJECT_NAME": "SKYSAT-C7", "OBJECT_ID": "2017-068E", "EPOCH": "2025-12-25T21:55:18.596352", "MEAN_MOTION": 15.32604229, "ECCENTRICITY": 0.00068158, "INCLINATION": 97.4296, "RA_OF_ASC_NODE": 131.004, "ARG_OF_PERICENTER": 14.8643, "MEAN_ANOMALY": 345.2798, "EPHEMERIS_TYPE": 0, "CLASSIFICATION_TYPE": "U", "NORAD_CAT_ID": 42991, "ELEMENT_SET_NO": 999, "REV_AT_EPOCH": 45579, "BSTAR": 0.00037042321, "MEAN_MOTION_DOT": 0.00011596, "MEAN_MOTION_DDOT": 0}, "tle": {"line1": "1 42991U 17068E   25359.91340968  .00011596  00000+0  37042-3 0  9991", "line2": "2 42991  97.4296 131.0040 0006815  14.8643 345.2798 15.32604229455791"}}, "geometry": {"type": "Point", "coordinates": [141.55686211638246, -53.70611566491417]}}, {"type": "Feature", "properties": {"norad_id": 42992, "name": "SKYSAT-C6", "group": "resource", "lat": 21.578109985176493, "lon": 128.7897931619271, "alt_km": 467.4871214492632, "timestamp": "2025-12-26T05:31:12.157486+00:00", "meta": {"OBJECT_NAME": "SKYSAT-C6", "OBJECT_ID": "2017-068F", "EPOCH": "2025-12-25T20:01:06.090528", "MEAN_MOTION": 15.31757076, "ECCENTRICITY": 0.00047376, "INCLINATION": 97.4326, "RA_OF_ASC_NODE": 131.3522, "ARG_OF_PERICENTER": 46.8398, "MEAN_ANOMALY": 313.3239, "EPHEMERIS_TYPE": 0, "CLASSIFICATION_TYPE": "U", "NORAD_CAT_ID": 42992, "ELEMENT_SET_NO": 999, "REV_AT_EPOCH": 45576, "BSTAR": 0.00037471515, "MEAN_MOTION_DOT": 0.0001142, "MEAN_MOTION_DDOT": 0}, "tle": {"line1": "1 42992U 17068F   25359.83409827  .00011420  00000+0  37472-3 0  9996", "line2": "2 42992  97.4326 131.3522 0004737  46.8398 313.3239 15.31757076455768"}}, "geometry": {"type": "Point", "coordinates": [128.7897931619271, 21.578109985176493]}}, {"type": "Feature", "properties": {"norad_id": 43111, "name": "CARTOSAT-2F", "group": "resource", "lat": -67.24856211178968, "lon": -140.4818312278783, "alt_km": 516.1834040941621, "timestamp": "2025-12-26T05:31:12.157496+00:00", "meta": {"OBJECT_NAME": "CARTOSAT-2F", "OBJECT_ID": "2018-004A", "EPOCH": "2025-12-25T23:41:16.284192", "MEAN_MOTION": 15.19248825, "ECCENTRICITY": 0.00015608, "INCLINATION": 97.4294, "RA_OF_ASC_NODE": 57.4084, "ARG_OF_PERICENTER": 110.7311, "MEAN_ANOMALY": 249.4091, "EPHEMERIS_TYPE": 0, "CLASSIFICATION_TYPE": "U", "NORAD_CAT_ID": 43111, "ELEMENT_SET_NO": 999, "REV_AT_EPOCH": 44103, "BSTAR": 0.00021970906, "MEAN_MOTION_DOT": 4.563e-05, "MEAN_MOTION_DDOT": 0}, "tle": {"line1": "1 43111U 18004A   25359.98699403  .00004563  00000+0  21971-3 0  9995", "line2": "2 43111  97.4294  57.4084 0001560 110.7311 249.4091 15.19248825441037"}}, "geometry": {"type": "Point", "coordinates": [-140.4818312278783, -67.24856211178968]}}, {"type": "Feature", "properties": {"norad_id": 43259, "name": "GAOFEN-1 02", "group": "resource", "lat": 78.0379958277488, "lon": -79.8799516141542, "alt_km": 632.6026527462909, "timestamp": "2025-12-26T05:31:12.157505+00:00", "meta": {"OBJECT_NAME": "GAOFEN-1 02", "OBJECT_ID": "2018-031A", "EPOCH": "2025-12-25T22:34:04.519776", "MEAN_MOTION": 14.76442891, "ECCENTRICITY": 0.00026714, "INCLINATION": 98.0784, "RA_OF_ASC_NODE": 57.733, "ARG_OF_PERICENTER": 169.0445, "MEAN_ANOMALY": 191.0823, "EPHEMERIS_TYPE": 0, "CLASSIFICATION_TYPE": "U", "NORAD_CAT_ID": 43259, "ELEMENT_SET_NO": 999, "REV_AT_EPOCH": 41713, "BSTAR": 0.00019984058, "MEAN_MOTION_DOT": 1.338e-05, "MEAN_MOTION_DDOT": 0}, "tle": {"line1": "1 43259U 18031A   25359.94033009  .00001338  00000+0  19984-3 0  9996", "line2": "2 43259  98.0784  57.7330 0002671 169.0445 191.0823 14.76442891417137"}}, "geometry": {"type": "Point", "coordinates": [-79.8799516141542, 78.0379958277488]}}, {"type": "Feature", "properties": {"norad_id": 43260, "name": "GAOFEN-1 03", "group": "resource", "lat": -34.76883080107859, "lon": -127.75938733904765, "alt_km": 645.7579599957944, "timestamp": "2025-12-26T05:31:12.157516+00:00", "meta": {"OBJECT_NAME": "GAOFEN-1 03", "OBJECT_ID": "2018-031B", "EPOCH": "2025-12-25T23:40:09.554016", "MEAN_MOTION": 14.76462999, "ECCENTRICITY": 0.00017605, "INCLINATION": 98.078, "RA_OF_ASC_NODE": 57.6551, "ARG_OF_PERICENTER": 250.8744, "MEAN_ANOMALY": 109.2275, "EPHEMERIS_TYPE": 0, "CLASSIFICATION_TYPE": "U", "NORAD_CAT_ID": 43260, "ELEMENT_SET_NO": 999, "REV_AT_EPOCH": 41713, "BSTAR": 0.00013678649, "MEAN_MOTION_DOT": 9e-06, "MEAN_MOTION_DDOT": 0}, "tle": {"line1": "1 43260U 18031B   25359.98622169  .00000900  00000+0  13679-3 0  9992", "line2": "2 43260  98.0780  57.6551 0001760 250.8744 109.2275 14.76462999417131"}}, "geometry": {"type": "Point", "coordinates": [-127.75938733904765, -34.76883080107859]}}, {"type": "Feature", "properties": {"norad_id": 43262, "name": "GAOFEN-1 04", "group": "resource", "lat": -16.010722642969156, "lon": 60.40476052292557, "alt_km": 645.3758311958827, "timestamp": "2025-12-26T05:31:12.157525+00:00", "meta": {"OBJECT_NAME": "GAOFEN-1 04", "OBJECT_ID": "2018-031D", "EPOCH": "2025-12-25T23:05:13.349184", "MEAN_MOTION": 14.76432171, "ECCENTRICITY": 5.151e-05, "INCLINATION": 98.0785, "RA_OF_ASC_NODE": 57.8009, "ARG_OF_PERICENTER": 63.9288, "MEAN_ANOMALY": 296.1975, "EPHEMERIS_TYPE": 0, "CLASSIFICATION_TYPE": "U", "NORAD_CAT_ID": 43262, "ELEMENT_SET_NO": 999, "REV_AT_EPOCH": 41712, "BSTAR": 0.00012021262, "MEAN_MOTION_DOT": 7.84e-06, "MEAN_MOTION_DDOT": 0}, "tle": {"line1": "1 43262U 18031D   25359.96196006  .00000784  00000+0  12021-3 0  9998", "line2": "2 43262  98.0785  57.8009 0000515  63.9288 296.1975 14.76432171417122"}}, "geometry": {"type": "Point", "coordinates": [60.40476052292557, -16.010722642969156]}}]}